[{"OBJECT_NAME":"FENGYUN 3E","OBJECT_ID":"2021-062A","EPOCH":"2026-03-14T21:59:57.918048","MEAN_MOTION":14.19894892,"ECCENTRICITY":0.00020226,"INCLINATION":98.7519,"RA_OF_ASC_NODE":78.372,"ARG_OF_PERICENTER":32.511,"MEAN_ANOMALY":327.6191,"EPHEMERIS_TYPE":0,"CLASSIFICATION_TYPE":"U","NORAD_CAT_ID":49008,"ELEMENT_SET_NO":999,"REV_AT_EPOCH":24320,"BSTAR":8.6485103e-5,"MEAN_MOTION_DOT":1.4e-6,"MEAN_MOTION_DDOT":0},{"OBJECT_NAME":"ISS (NAUKA)","OBJECT_ID":"2021-066A","EPOCH":"2026-03-14T19:19:28.771104","MEAN_MOTION":15.48281436,"ECCENTRICITY":0.00063712,"INCLINATION":51.6329,"RA_OF_ASC_NODE":47.0659,"ARG_OF_PERICENTER":190.9724,"MEAN_ANOMALY":169.1126,"EPHEMERIS_TYPE":0,"CLASSIFICATION_TYPE":"U","NORAD_CAT_ID":49044,"ELEMENT_SET_NO":999,"REV_AT_EPOCH":55445,"BSTAR":0.00020105253,"MEAN_MOTION_DOT":0.00010373,"MEAN_MOTION_DDOT":0},{"OBJECT_NAME":"STARLINK-3100","OBJECT_ID":"2021-082Q","EPOCH":"2026-03-14T21:48:33.277536","MEAN_MOTION":14.98331233,"ECCENTRICITY":0.000283,"INCLINATION":69.997,"RA_OF_ASC_NODE":281.2843,"ARG_OF_PERICENTER":268.173,"MEAN_ANOMALY":91.9105,"EPHEMERIS_TYPE":0,"CLASSIFICATION_TYPE":"U","NORAD_CAT_ID":49144,"ELEMENT_SET_NO":999,"REV_AT_EPOCH":24676,"BSTAR":3.8856109e-5,"MEAN_MOTION_DOT":3.71e-6,"MEAN_MOTION_DDOT":0},{"OBJECT_NAME":"CUTE","OBJECT_ID":"2021-088D","EPOCH":"2026-03-14T17:22:54.141600","MEAN_MOTION":15.67264655,"ECCENTRICITY":0.00029815,"INCLINATION":97.4218,"RA_OF_ASC_NODE":166.2093,"ARG_OF_PERICENTER":291.4379,"MEAN_ANOMALY":68.6563,"EPHEMERIS_TYPE":0,"CLASSIFICATION_TYPE":"U","NORAD_CAT_ID":49263,"ELEMENT_SET_NO":999,"REV_AT_EPOCH":24766,"BSTAR":0.00052229185,"MEAN_MOTION_DOT":0.00056224,"MEAN_MOTION_DDOT":0},{"OBJECT_NAME":"2021-091B","OBJECT_ID":"2021-091B","EPOCH":"2026-03-14T22:44:27.957984","MEAN_MOTION":15.18026801,"ECCENTRICITY":0.00139062,"INCLINATION":97.448,"RA_OF_ASC_NODE":262.977,"ARG_OF_PERICENTER":15.3027,"MEAN_ANOMALY":344.8624,"EPHEMERIS_TYPE":0,"CLASSIFICATION_TYPE":"U","NORAD_CAT_ID":49316,"ELEMENT_SET_NO":999,"REV_AT_EPOCH":24468,"BSTAR":0.00031689948,"MEAN_MOTION_DOT":6.397e-5,"MEAN_MOTION_DDOT":0},{"OBJECT_NAME":"SDGSAT 1","OBJECT_ID":"2021-100A","EPOCH":"2026-03-14T22:33:20.097216","MEAN_MOTION":15.19401289,"ECCENTRICITY":0.00064159,"INCLINATION":97.2772,"RA_OF_ASC_NODE":124.3558,"ARG_OF_PERICENTER":261.3759,"MEAN_ANOMALY":98.6749,"EPHEMERIS_TYPE":0,"CLASSIFICATION_TYPE":"U","NORAD_CAT_ID":49387,"ELEMENT_SET_NO":999,"REV_AT_EPOCH":24160,"BSTAR":0.00019218099,"MEAN_MOTION_DOT":4.004e-5,"MEAN_MOTION_DDOT":0},{"OBJECT_NAME":"TEIKYOSAT-4 (OORURI)","OBJECT_ID":"2021-102B","EPOCH":"2026-03-14T15:33:27.866016","MEAN_MOTION":15.09143327,"ECCENTRICITY":0.00105718,"INCLINATION":97.3787,"RA_OF_ASC_NODE":106.7772,"ARG_OF_PERICENTER":256.7504,"MEAN_ANOMALY":103.2547,"EPHEMERIS_TYPE":0,"CLASSIFICATION_TYPE":"U","NORAD_CAT_ID":49396,"ELEMENT_SET_NO":999,"REV_AT_EPOCH":23846,"BSTAR":0.00018462762,"MEAN_MOTION_DOT":2.872e-5,"MEAN_MOTION_DDOT":0},{"OBJECT_NAME":"Z-SAT","OBJECT_ID":"2021-102E","EPOCH":"2026-03-14T22:16:23.527776","MEAN_MOTION":15.17478353,"ECCENTRICITY":0.00158754,"INCLINATION":97.3458,"RA_OF_ASC_NODE":112.1063,"ARG_OF_PERICENTER":211.3796,"MEAN_ANOMALY":148.6492,"EPHEMERIS_TYPE":0,"CLASSIFICATION_TYPE":"U","NORAD_CAT_ID":49399,"ELEMENT_SET_NO":999,"REV_AT_EPOCH":23914,"BSTAR":0.00025136493,"MEAN_MOTION_DOT":4.985e-5,"MEAN_MOTION_DDOT":0},{"OBJECT_NAME":"HIBARI","OBJECT_ID":"2021-102F","EPOCH":"2026-03-14T20:57:46.837728","MEAN_MOTION":15.29697336,"ECCENTRICITY":0.00126385,"INCLINATION":97.3376,"RA_OF_ASC_NODE":120.9283,"ARG_OF_PERICENTER":168.4378,"MEAN_ANOMALY":191.7155,"EPHEMERIS_TYPE":0,"CLASSIFICATION_TYPE":"U","NORAD_CAT_ID":49400,"ELEMENT_SET_NO":999,"REV_AT_EPOCH":23976,"BSTAR":0.00054588286,"MEAN_MOTION_DOT":0.00015683,"MEAN_MOTION_DDOT":0},{"OBJECT_NAME":"KOSEN-1","OBJECT_ID":"2021-102H","EPOCH":"2026-03-14T15:51:19.483488","MEAN_MOTION":15.25418676,"ECCENTRICITY":0.00143405,"INCLINATION":97.3329,"RA_OF_ASC_NODE":117.6863,"ARG_OF_PERICENTER":174.9854,"MEAN_ANOMALY":185.1531,"EPHEMERIS_TYPE":0,"CLASSIFICATION_TYPE":"U","NORAD_CAT_ID":49402,"ELEMENT_SET_NO":999,"REV_AT_EPOCH":23960,"BSTAR":0.00046708803,"MEAN_MOTION_DOT":0.00011772,"MEAN_MOTION_DDOT":0},{"OBJECT_NAME":"GLOBAL-14","OBJECT_ID":"2021-106A","EPOCH":"2026-03-14T12:31:58.727136","MEAN_MOTION":15.45987405,"ECCENTRICITY":0.00121982,"INCLINATION":42.0048,"RA_OF_ASC_NODE":131.7574,"ARG_OF_PERICENTER":84.9894,"MEAN_ANOMALY":275.2341,"EPHEMERIS_TYPE":0,"CLASSIFICATION_TYPE":"U","NORAD_CAT_ID":49469,"ELEMENT_SET_NO":999,"REV_AT_EPOCH":24345,"BSTAR":0.0006714133,"MEAN_MOTION_DOT":0.00033497,"MEAN_MOTION_DDOT":0},{"OBJECT_NAME":"GAOFEN-3 02","OBJECT_ID":"2021-109A","EPOCH":"2026-03-14T23:20:02.242752","MEAN_MOTION":14.42216756,"ECCENTRICITY":0.00014337,"INCLINATION":98.4135,"RA_OF_ASC_NODE":83.3939,"ARG_OF_PERICENTER":282.4834,"MEAN_ANOMALY":77.6195,"EPHEMERIS_TYPE":0,"CLASSIFICATION_TYPE":"U","NORAD_CAT_ID":49495,"ELEMENT_SET_NO":999,"REV_AT_EPOCH":22673,"BSTAR":-1.8753101e-5,"MEAN_MOTION_DOT":-1.05e-6,"MEAN_MOTION_DDOT":0},{"OBJECT_NAME":"GLOBAL-12","OBJECT_ID":"2021-115BA","EPOCH":"2026-03-14T11:21:31.678848","MEAN_MOTION":15.48192399,"ECCENTRICITY":0.00037958,"INCLINATION":53.1955,"RA_OF_ASC_NODE":138.1177,"ARG_OF_PERICENTER":65.8995,"MEAN_ANOMALY":294.2411,"EPHEMERIS_TYPE":0,"CLASSIFICATION_TYPE":"U","NORAD_CAT_ID":49772,"ELEMENT_SET_NO":999,"REV_AT_EPOCH":24120,"BSTAR":0.00063889097,"MEAN_MOTION_DOT":0.00033879,"MEAN_MOTION_DDOT":0},{"OBJECT_NAME":"GLOBAL-13","OBJECT_ID":"2021-115BB","EPOCH":"2026-03-14T21:21:25.924032","MEAN_MOTION":15.4242389,"ECCENTRICITY":0.00014714,"INCLINATION":53.1982,"RA_OF_ASC_NODE":141.6599,"ARG_OF_PERICENTER":132.1416,"MEAN_ANOMALY":227.9716,"EPHEMERIS_TYPE":0,"CLASSIFICATION_TYPE":"U","NORAD_CAT_ID":49773,"ELEMENT_SET_NO":999,"REV_AT_EPOCH":24119,"BSTAR":0.00054693912,"MEAN_MOTION_DOT":0.00023672,"MEAN_MOTION_DDOT":0},{"OBJECT_NAME":"GLOBAL-17","OBJECT_ID":"2021-120A","EPOCH":"2026-03-14T13:15:47.536128","MEAN_MOTION":15.4729997,"ECCENTRICITY":0.00122084,"INCLINATION":41.9946,"RA_OF_ASC_NODE":251.1492,"ARG_OF_PERICENTER":304.7703,"MEAN_ANOMALY":55.199,"EPHEMERIS_TYPE":0,"CLASSIFICATION_TYPE":"U","NORAD_CAT_ID":49949,"ELEMENT_SET_NO":999,"REV_AT_EPOCH":24021,"BSTAR":0.0007086515,"MEAN_MOTION_DOT":0.00037045,"MEAN_MOTION_DDOT":0},{"OBJECT_NAME":"GLOBAL-16","OBJECT_ID":"2021-120B","EPOCH":"2026-03-14T21:43:07.738752","MEAN_MOTION":15.45691089,"ECCENTRICITY":0.00103905,"INCLINATION":41.9949,"RA_OF_ASC_NODE":251.2351,"ARG_OF_PERICENTER":297.5739,"MEAN_ANOMALY":62.4047,"EPHEMERIS_TYPE":0,"CLASSIFICATION_TYPE":"U","NORAD_CAT_ID":49950,"ELEMENT_SET_NO":999,"REV_AT_EPOCH":24023,"BSTAR":0.00061202236,"MEAN_MOTION_DOT":0.00030161,"MEAN_MOTION_DDOT":0}]
