FENGYUN 3E              
1 49008U 21062A   26073.91664257  .00000140  00000+0  86485-4 0  9999
2 49008  98.7519  78.3720 0002022  32.5110 327.6191 14.19894892243202
ISS (NAUKA)             
1 49044U 21066A   26073.80519411  .00010373  00000+0  20105-3 0  9997
2 49044  51.6329  47.0659 0006371 190.9724 169.1126 15.48281436554450
STARLINK-3100           
1 49144U 21082Q   26073.90871849  .00000371  00000+0  38856-4 0  9993
2 49144  69.9970 281.2843 0002830 268.1730  91.9105 14.98331233246769
CUTE                    
1 49263U 21088D   26073.72423775  .00056224  00000+0  52229-3 0  9999
2 49263  97.4218 166.2093 0002981 291.4379  68.6563 15.67264655247665
2021-091B               
1 49316U 21091B   26073.94754581  .00006397  00000+0  31690-3 0  9993
2 49316  97.4480 262.9770 0013906  15.3027 344.8624 15.18026801244684
SDGSAT 1                
1 49387U 21100A   26073.93981594  .00004004  00000+0  19218-3 0  9992
2 49387  97.2772 124.3558 0006415 261.3759  98.6749 15.19401289241600
TEIKYOSAT-4 (OORURI)    
1 49396U 21102B   26073.64823919  .00002872  00000+0  18463-3 0  9990
2 49396  97.3787 106.7772 0010571 256.7504 103.2547 15.09143327238467
Z-SAT                   
1 49399U 21102E   26073.92805009  .00004985  00000+0  25136-3 0  9996
2 49399  97.3458 112.1063 0015875 211.3796 148.6492 15.17478353239148
HIBARI                  
1 49400U 21102F   26073.87345877  .00015683  00000+0  54588-3 0  9995
2 49400  97.3376 120.9283 0012638 168.4378 191.7155 15.29697336239763
KOSEN-1                 
1 49402U 21102H   26073.66064217  .00011772  00000+0  46709-3 0  9991
2 49402  97.3329 117.6863 0014340 174.9854 185.1531 15.25418676239605
GLOBAL-14               
1 49469U 21106A   26073.52220749  .00033497  00000+0  67141-3 0  9998
2 49469  42.0048 131.7574 0012198  84.9894 275.2341 15.45987405243453
GAOFEN-3 02             
1 49495U 21109A   26073.97224818 -.00000105  00000+0 -18753-4 0  9998
2 49495  98.4135  83.3939 0001433 282.4834  77.6195 14.42216756226733
GLOBAL-12               
1 49772U 21115BA  26073.47328332  .00033879  00000+0  63889-3 0  9995
2 49772  53.1955 138.1177 0003795  65.8995 294.2411 15.48192399241206
GLOBAL-13               
1 49773U 21115BB  26073.88988338  .00023672  00000+0  54694-3 0  9993
2 49773  53.1982 141.6599 0001471 132.1416 227.9716 15.42423890241195
GLOBAL-17               
1 49949U 21120A   26073.55263352  .00037045  00000+0  70865-3 0  9997
2 49949  41.9946 251.1492 0012208 304.7703  55.1990 15.47299970240212
GLOBAL-16               
1 49950U 21120B   26073.90495068  .00030161  00000+0  61202-3 0  9996
2 49950  41.9949 251.2351 0010390 297.5739  62.4047 15.45691089240231
